IRIDIUM 106             
1 41917U 17003A   25228.69544275  .00000115  00000+0  34002-4 0  9993
2 41917  86.3965 215.7146 0002396  99.8935 260.2531 14.34217939449560
IRIDIUM 103             
1 41918U 17003B   25229.24090382  .00000029  00000+0  33395-5 0  9990
2 41918  86.3966 215.3874 0001714  90.0618 270.0774 14.34217584449676
IRIDIUM 109             
1 41919U 17003C   25228.68909949  .00000015  00000+0 -15955-5 0  9994
2 41919  86.3969 215.6726 0002116  84.9530 275.1907 14.34217633449557
IRIDIUM 102             
1 41920U 17003D   25229.42484071  .00000070  00000+0  17784-4 0  9994
2 41920  86.3967 215.2950 0002352  85.0977 275.0487 14.34217901449742
IRIDIUM 105             
1 41921U 17003E   25228.41882100  .00000282  00000+0  93716-4 0  9992
2 41921  86.4026 184.2103 0002131  85.9893 274.1546 14.34217633451455
IRIDIUM 104             
1 41922U 17003F   25228.67007034  .00000028  00000+0  28138-5 0  9991
2 41922  86.3967 215.6484 0002050  80.1605 279.9822 14.34217777449623
IRIDIUM 114             
1 41923U 17003G   25229.37409915  .00000050  00000+0  10689-4 0  9990
2 41923  86.3967 215.3384 0002056  91.0659 269.0772 14.34217748449729
IRIDIUM 108             
1 41924U 17003H   25228.63493673  .00000111  00000+0  32532-4 0  9992
2 41924  86.4021 184.0178 0002437  87.5287 272.6188 14.34218011451475
